TIANZHOU-5              
1 54237U 22152A   22345.16656185  .00024848  00000+0  30627-3 0  9993
2 54237  41.4759 221.3706 0004180  69.6156  73.9672 15.59610960 92434
GALAXY 31 (G-31)        
1 54243U 22153A   22346.47118595  .00000148  00000+0  00000+0 0  9999
2 54243   0.0553 124.3839 0002344 183.3385 154.1140  1.00272596   285
GALAXY 32 (G-32)        
1 54244U 22153B   22346.47109878  .00000148  00000+0  00000+0 0  9994
2 54244   0.0140  27.5123 0002511 254.1727 180.0157  1.00271925   305
FALCON 9 R/B            
1 54248U 22153C   22346.29452355  .00011414  20783-5  18503-2 0  9993
2 54248  24.6579 121.4935 8150807 189.9626 125.7319  1.29825076   371
YAOGAN-34 03            
1 54249U 22154A   22346.52589420 -.00000090  00000+0  00000+0 0  9998
2 54249  63.4085 315.7491 0008934 271.6745  88.3261 13.45255823  3704
CZ-4C R/B               
1 54250U 22154B   22346.36812882 -.00000069  00000+0  29380-4 0  9996
2 54250  63.4118 313.3929 0122905  44.2468 316.8315 13.68845139  3747
2022-155A               
1 54251U 22155A   22346.58238631  .00006965  00000+0  43672-3 0  9995
2 54251  97.5357  90.8998 0014416 193.2131 292.4959 15.09559241  3974
2022-155B               
1 54252U 22155B   22346.58245006  .00006946  00000+0  43558-3 0  9992
2 54252  97.5414  90.9204 0014342 193.6230 292.2734 15.09557234  3971
2022-155C               
1 54253U 22155C   22346.58651043  .00006839  00000+0  43176-3 0  9992
2 54253  97.5388  90.9056 0013774 189.8485 295.7738 15.09319486  3960
2022-155D               
1 54254U 22155D   22346.59228009  .00006896  00000+0  43305-3 0  9993
2 54254  97.5384  90.9177 0014249 192.4074 342.3152 15.09508045  3974
2022-155E               
1 54255U 22155E   22346.58249021  .00006943  00000+0  43544-3 0  9998
2 54255  97.5384  90.9100 0013462 194.7432 291.7953 15.09561529  3972
SLS R/B                 
1 54258U 22156B   22320.38000000 -.00015394  00000+0  00000+0 0  9991
2 54258  30.5010  10.5910 9639665  20.8820   1.0790  0.10372534    41
EUTELSAT 10B            
1 54259U 22157A   22340.83333333 -.00000269  00000+0  00000+0 0  9998
2 54259  20.1103 295.5529 7976554 182.0583 252.8095  1.17084731   172
FALCON 9 R/B            
1 54260U 22157B   22341.90571027 -.00000777  00000+0 -72742-4 0  9995
2 54260  22.5463 295.3908 8183547 183.0567 162.9815  1.25003545   189
EOS-6 (OCEANSAT-3)      
1 54361U 22158A   22346.43389051  .00000005  00000+0  13524-4 0  9990
2 54361  98.3546  80.9847 0011844 180.0991 180.0242 14.45826088  2339
2022-158B               
1 54362U 22158B   22346.57078704  .00004508  00000+0  23126-3 0  9996
2 54362  97.4626  81.6714 0023777 189.7322 343.0691 15.16801347  2454
THYBOLT 1               
1 54363U 22158C   22346.53482949  .00014237  00000+0  67333-3 0  9991
2 54363  97.4498  81.5233 0011496 198.4618 282.8468 15.19429024  2450
THYBOLT 2               
1 54364U 22158D   22346.53394828  .00013973  00000+0  66092-3 0  9997
2 54364  97.4496  81.5241 0011175 199.3806 277.5558 15.19432988  2455
INS-2B                  
1 54365U 22158E   22346.59848137  .00013557  00000+0  63705-3 0  9997
2 54365  97.4452  81.5752 0011224 209.0388 274.5642 15.19666537  2465
ANAND                   
1 54366U 22158F   22346.59641745  .00011462  00000+0  53686-3 0  9994
2 54366  97.4430  81.5708 0010120 208.6571 275.2090 15.19831333  2469
ASTROCAST-0304          
1 54367U 22158G   22346.59223503  .00004297  00000+0  20169-3 0  9991
2 54367  97.4469  81.5940 0008176 206.7767 277.5979 15.20146874  2455
ASTROCAST-0303          
1 54368U 22158H   22346.59131774  .00005316  00000+0  24809-3 0  9998
2 54368  97.4490  81.6016 0007937 216.9920 267.4465 15.20241379  2468
ASTROCAST-0302          
1 54369U 22158J   22346.58993378  .00012285  00000+0  56533-3 0  9996
2 54369  97.4493  81.6037 0008038 222.2020 262.5109 15.20439346  2463
ASTROCAST-0301          
1 54370U 22158K   22346.58812135  .00010658  00000+0  48853-3 0  9997
2 54370  97.4487  81.6069 0008189 229.9122 255.3546 15.20613368  2460
DRAGON CRS-26           
1 54371U 22159A   22345.56752149  .00010983  00000+0  20093-3 0  9991
2 54371  51.6429 177.8693 0003927 144.6906 300.3518 15.49885267372693
2022-160A               
1 54372U 22160A   22346.59156282  .00009688  00000+0  40962-3 0  9991
2 54372  34.9973 133.0183 0005711 358.4448  92.4410 15.22450331  2308
2022-160B               
1 54373U 22160B   22346.58713647  .00021709  00000+0  88158-3 0  9992
2 54373  34.9984 132.9888 0008192  27.3062  62.3874 15.23669030  2300
2022-160C               
1 54374U 22160C   22346.59671219  .00007683  00000+0  32650-3 0  9993
2 54374  34.9971 133.0295 0005918 356.8258 107.2748 15.22320042  2261
2022-160D               
1 54375U 22160D   22346.64496006  .00024415  00000+0  98096-3 0  9997
2 54375  34.9987 132.5825 0008125  36.9409  26.8648 15.24006794  2317
2022-160E               
1 54376U 22160E   22346.45712135 -.00004320  00000+0 -18092-3 0  9994
2 54376  34.9980 133.9161 0007788  23.5510  30.4120 15.22399140  2288
COSMOS 2564 [GLONASS-M] 
1 54377U 22161A   22343.65354395  .00000039  00000+0  00000+0 0  9992
2 54377  64.7808 235.5579 0027267 231.6187 268.4265  2.13730857   233
FREGAT R/B              
1 54378U 22161B   22332.88538517  .00000006  00000+0  00000+0 0  9990
2 54378  64.7543 235.8312 0069964  61.3586  78.3433  2.10629160    00
SHENZHOU-15             
1 54379U 22162A   22345.16656185  .00024848  00000+0  30627-3 0  9991
2 54379  41.4759 221.3706 0004180  69.6156  73.9672 15.59610960 92431
COSMOS 2565             
1 54381U 22163A   22346.69491413 -.00000050  00000+0  18333-4 0  9996
2 54381  67.1534 344.3415 0006917 268.4306  91.5986 13.96672415  1671
SL-4 R/B                
1 54382U 22163B   22346.71303654  .00115363  69571-5  59130-3 0  9995
2 54382  67.1318 339.5878 0455669  81.3039 283.9420 15.04886348  1783
2022-163C               
1 54383U 22163C   22346.69189072 -.00000004  00000+0  51167-4 0  9994
2 54383  67.1419 344.3280 0010841 322.1225  37.9096 13.97181987  1366
1998-067UL              
1 54534U 98067UL  22340.86252666  .00085099  00000+0  14432-2 0  9999
2 54534  51.6411 201.1483 0007784 141.2081 329.2667 15.50741142   750
1998-067UM              
1 54535U 98067UM  22346.46347146  .00046638  00000+0  78342-3 0  9997
2 54535  51.6439 173.3509 0006742 159.4695 285.5683 15.51279760  1627
1998-067UN              
1 54536U 98067UN  22346.46376694  .00036667  00000+0  62140-3 0  9998
2 54536  51.6440 173.3546 0007133 158.4104 286.6200 15.51138797  1586
1998-067UP              
1 54537U 98067UP  22346.46341412  .00041157  00000+0  69370-3 0  9991
2 54537  51.6444 173.3522 0007356 158.9065 286.1323 15.51236410  1620
2022-164A               
1 54588U 22164A   22346.63690797  .00001524  00000+0  45338-3 0  9996
2 54588  98.3566  13.9274 0008537 261.2810  98.7399 14.44525144   816
KZ-11 R/B               
1 54589U 22164B   22346.60465018 -.00000667  21088-5  00000+0 0  9996
2 54589  98.3673  14.4927 0382247  86.8923 277.6083 15.07570436   841
2022-165A               
1 54640U 22165A   22345.42352343  .00208217  00000+0  39318-1 0  9991
2 54640  98.1227 283.8740 0011469 313.2743 108.3298 14.63034455   383
2022-165B               
1 54641U 22165B   22346.64036639  .00000554  00000+0  11080-3 0  9996
2 54641  98.0284 284.9332 0033489 290.9440  68.8128 14.65347331   560
ONEWEB A                
1 54642U 22166A   22346.66668981 -.00042865  00000+0 -43537-2 0  9995
2 54642  86.5166 156.7029 0006950 222.4105 130.2282 14.91160023  1300
ONEWEB B                
1 54643U 22166B   22346.66668981 -.00042847  00000+0 -43536-2 0  9995
2 54643  86.5180 156.7036 0006908 223.2401 129.1287 14.91145005  1301
ONEWEB C                
1 54644U 22166C   22346.66668981 -.00042645  00000+0 -43025-2 0  9995
2 54644  86.5161 156.7009 0008259 220.5848 135.3965 14.91418609  1302
ONEWEB D                
1 54645U 22166D   22346.66668981 -.00042906  00000+0 -43719-2 0  9996
2 54645  86.5146 156.7018 0006712 226.9756 123.9601 14.91032584  1300
ONEWEB E                
1 54646U 22166E   22346.66668981 -.00042200  00000+0 -41574-2 0  9991
2 54646  86.5168 156.6999 0011694 231.8853 136.2482 14.92339742  1301
ONEWEB F                
1 54647U 22166F   22346.66668981 -.00043015  00000+0 -43768-2 0  9994
2 54647  86.5148 156.7020 0006823 225.0990 126.5549 14.91090175  1300
ONEWEB G                
1 54648U 22166G   22346.66668981 -.00042394  00000+0 -42051-2 0  9998
2 54648  86.5155 156.7015 0011041 227.3105 137.4215 14.92074712  1305
ONEWEB H                
1 54649U 22166H   22346.66668981 -.00042564  00000+0 -42756-2 0  9990
2 54649  86.5162 156.6993 0009055 221.0974 137.1954 14.91587109  1300
ONEWEB J                
1 54650U 22166J   22346.66668981 -.00042550  00000+0 -42573-2 0  9994
2 54650  86.5166 156.7011 0009725 220.9430 139.3176 14.91740914  1313
ONEWEB K                
1 54651U 22166K   22346.66668981 -.00041825  00000+0 -41916-2 0  9999
2 54651  86.5160 156.6994 0009379 221.4453 137.8899 14.91674163  1309
ONEWEB L                
1 54652U 22166L   22346.66668981 -.00042647  00000+0 -43058-2 0  9992
2 54652  86.5169 156.7025 0008135 220.5904 135.0228 14.91390808  1302
ONEWEB M                
1 54653U 22166M   22346.66668981 -.00042963  00000+0 -43949-2 0  9993
2 54653  86.5186 156.7047 0006305 232.1355 116.7136 14.90878540  1309
ONEWEB N                
1 54654U 22166N   22346.66668981 -.00042668  00000+0 -42919-2 0  9992
2 54654  86.5173 156.7042 0008830 220.5564 137.0387 14.91534784  1303
ONEWEB P                
1 54655U 22166P   22346.66668981 -.00042384  00000+0 -41815-2 0  9992
2 54655  86.5160 156.7010 0011513 231.2943 136.1815 14.92285139  1301
ONEWEB Q                
1 54656U 22166Q   22346.66668981 -.00042435  00000+0 -41951-2 0  9991
2 54656  86.5153 156.7014 0011279 229.9921 136.4376 14.92206115  1309
ONEWEB R                
